[{"OBJECT_NAME":"CUBESX-HSE 3 (RS42S)","OBJECT_ID":"2023-091N","EPOCH":"2026-03-09T22:57:25.321248","MEAN_MOTION":15.286147,"ECCENTRICITY":0.00127191,"INCLINATION":97.5203,"RA_OF_ASC_NODE":133.4295,"ARG_OF_PERICENTER":86.5376,"MEAN_ANOMALY":273.7318,"EPHEMERIS_TYPE":0,"CLASSIFICATION_TYPE":"U","NORAD_CAT_ID":57178,"ELEMENT_SET_NO":999,"REV_AT_EPOCH":14925,"BSTAR":0.00059055694,"MEAN_MOTION_DOT":0.00016417,"MEAN_MOTION_DDOT":0},{"OBJECT_NAME":"STARLINK-32236","OBJECT_ID":"2024-141W","EPOCH":"2026-03-09T16:55:45.780672","MEAN_MOTION":15.30194506,"ECCENTRICITY":9.214e-5,"INCLINATION":53.1597,"RA_OF_ASC_NODE":242.4669,"ARG_OF_PERICENTER":88.9294,"MEAN_ANOMALY":271.1812,"EPHEMERIS_TYPE":0,"CLASSIFICATION_TYPE":"U","NORAD_CAT_ID":60418,"ELEMENT_SET_NO":999,"REV_AT_EPOCH":8958,"BSTAR":3.615563e-6,"MEAN_MOTION_DOT":-2.52e-6,"MEAN_MOTION_DDOT":0}]
